OBJECT_NAME,OBJECT_ID,EPOCH,MEAN_MOTION,ECCENTRICITY,INCLINATION,RA_OF_ASC_NODE,ARG_OF_PERICENTER,MEAN_ANOMALY,EPHEMERIS_TYPE,CLASSIFICATION_TYPE,NORAD_CAT_ID,ELEMENT_SET_NO,REV_AT_EPOCH,BSTAR,MEAN_MOTION_DOT,MEAN_MOTION_DDOT
CUBEBUG-2 (LO-74),2013-066AA,2026-06-12T20:13:56.821728,14.93728016,.00587552,97.8900,112.8027,43.0424,317.5369,0,U,39440,999,67634,.41876799E-3,.4525E-4,0
FUNCUBE-1 (AO-73),2013-066AE,2026-06-13T03:29:24.007200,15.09441691,.00353168,97.8264,135.5066,215.1980,144.6915,0,U,39444,999,67905,.44671393E-3,.7185E-4,0
UWE-3,2013-066AG,2026-06-13T03:19:14.309184,14.96993972,.00482177,97.8688,120.1848,334.6375,25.2479,0,U,39446,999,67697,.39472256E-3,.4587E-4,0
UNISAT-6,2014-033C,2026-06-13T05:36:29.290176,14.88226304,.00463827,97.7869,317.0154,81.9957,278.6519,0,U,40012,999,64557,.33591355E-3,.3106E-4,0
DUCHIFAT-1,2014-033M,2026-06-13T02:51:52.958016,15.63811207,.00037699,98.0477,222.7109,123.4886,236.6731,0,U,40021,999,65511,.11013427E-2,.104096E-2,0
QB50P1,2014-033R,2026-06-13T06:16:37.129440,15.18203593,.00074733,98.0959,175.1320,230.7875,129.2695,0,U,40025,999,65243,.40303834E-3,.8174E-4,0
LILACSAT-2,2015-049K,2026-06-13T06:33:26.267616,15.51324862,.00053196,97.4653,200.9661,263.8719,96.1927,0,U,40908,999,59514,.33643354E-3,.19691E-3,0
FOX-1A (AO-85),2015-058D,2026-06-12T17:23:06.617760,14.90949991,.01302253,64.7760,292.8522,58.2895,303.0834,0,U,40967,999,11290,.24338137E-3,.2656E-4,0
CAS-2T & KS-1Q,2016-066G,2026-06-13T05:21:47.057184,14.44682028,.03426761,98.3820,240.0050,141.4655,221.1545,0,U,41847,999,50422,.2357703E-3,.1632E-4,0
RADFXSAT (FOX-1B),2017-073E,2026-06-13T04:09:02.856672,15.12658039,.01501889,97.4713,31.4706,343.1740,16.4538,0,U,43017,999,46478,.40510956E-3,.9278E-4,0
DIWATA-2B,2018-084H,2026-06-13T07:14:49.617024,15.00433960,.00122829,98.1180,0.3416,182.6925,177.4233,0,U,43678,999,41563,.18516459E-3,.2266E-4,0
ES'HAIL 2,2018-090A,2026-06-13T06:25:57.370368,1.00268629,.00014979,0.0014,352.0519,130.5545,261.2737,0,U,43700,999,2763,0,.156E-5,0
FOX-1CLIFF (AO-95),2018-099N,2026-06-13T03:28:52.384800,15.26630573,.00084098,97.4395,224.4060,12.6677,347.4772,0,U,43770,999,41260,.41003729E-3,.10687E-3,0
ITASAT,2018-099AE,2026-06-13T03:14:36.974688,15.19009919,.00125395,97.4035,215.7274,14.5833,345.5761,0,U,43786,999,41229,.33909836E-3,.7046E-4,0
JY1SAT (JO-97),2018-099AX,2026-06-13T02:46:27.518592,15.33530992,.00041589,97.4136,226.9355,282.3495,77.7281,0,U,43803,999,41300,.56663052E-3,.18314E-3,0
UWE-4,2018-111E,2026-06-12T17:58:42.335904,15.45861506,.00063276,97.5854,91.9364,1.7495,358.3775,0,U,43880,999,41009,.74699689E-3,.36318E-3,0
TIANYAN 01,2019-093C,2026-06-13T06:36:20.683296,14.86511535,.00149919,97.7533,236.6024,98.6754,261.6161,0,U,44881,999,35083,.6861054E-4,.555E-5,0
RS-44 & BREEZE-KM R/B,2019-096E,2026-06-13T06:03:34.429248,12.79748773,.02180139,82.5217,342.3200,153.3389,207.9122,0,U,44909,999,30184,.69238531E-4,.3E-6,0
SALSAT,2020-068K,2026-06-13T03:43:51.984192,15.29744309,.00083576,97.8846,166.9746,325.1548,34.9143,0,U,46495,999,31474,.27935128E-3,.7973E-4,0
XW-3 (CAS-9),2021-131B,2026-06-13T07:20:35.916864,14.41353637,.00052987,98.4978,256.7164,105.1268,255.0508,0,U,50466,999,23455,.1267853E-3,.366E-5,0
GREENCUBE (IO-117),2022-080E,2026-06-01T11:09:37.753056,6.42583280,.00088692,70.1435,303.7143,293.3663,66.6064,0,U,53109,999,9105,0,-.3E-7,0
UMKA 1 (RS40S),2023-091G,2026-06-13T06:39:52.721856,15.20774579,.00140969,97.5057,222.9897,129.8079,230.4399,0,U,57172,999,16341,.2719302E-3,.5936E-4,0
CUBESX-HSE 3 (RS42S),2023-091N,2026-06-13T06:03:57.618144,15.31121766,.00121185,97.5101,229.7900,106.7532,253.5039,0,U,57178,999,16382,.47424167E-3,.14221E-3,0
MONITOR-3 (RS58S),2023-091Q,2026-06-13T06:26:45.579840,15.27767226,.00131066,97.5091,227.6856,112.8829,247.3795,0,U,57180,999,16369,.40782925E-3,.11018E-3,0
MONITOR-4 (RS57S),2023-091S,2026-06-13T05:56:54.979584,15.27854685,.00131204,97.5087,227.6358,113.2961,246.9661,0,U,57182,999,16369,.38821234E-3,.10512E-3,0
MONITOR-2 (RS39S),2023-091U,2026-06-13T05:28:34.087584,15.18876098,.00126232,97.5080,222.5363,123.1759,237.0688,0,U,57184,999,16335,.25669726E-3,.5294E-4,0
SVYATOBOR 1 (RS60S),2023-091X,2026-06-13T06:10:55.144416,15.26551879,.00109174,97.5097,228.0526,106.1950,254.0491,0,U,57187,999,16371,.37658173E-3,.979E-4,0
VIZARD-METEO (RS38S),2023-091Z,2026-06-13T05:43:49.423008,15.35907033,.00085003,97.5100,233.6445,89.4621,270.7597,0,U,57189,999,16408,.48095097E-3,.16761E-3,0
POLYTECH-UNIVERSE 3 (RS46S),2023-091AB,2026-06-13T06:08:29.573376,15.19076898,.00166524,97.5054,222.0685,139.3417,220.9064,0,U,57191,999,16335,.25454959E-3,.5288E-4,0
UTMN 2 (RS27S),2023-091AP,2026-06-13T04:58:19.646976,15.31959586,.0009442,97.5096,231.3730,95.5731,264.6588,0,U,57203,999,16393,.45040511E-3,.13847E-3,0
