CUBEBUG-2 (LO-74)       
1 39440U 13066AA  26163.84301877  .00004525  00000+0  41877-3 0  9997
2 39440  97.8900 112.8027 0058755  43.0424 317.5369 14.93728016676344
FUNCUBE-1 (AO-73)       
1 39444U 13066AE  26164.14541675  .00007185  00000+0  44671-3 0  9997
2 39444  97.8264 135.5066 0035316 215.1980 144.6915 15.09441691679059
UWE-3                   
1 39446U 13066AG  26164.13836006  .00004587  00000+0  39472-3 0  9999
2 39446  97.8688 120.1848 0048217 334.6375  25.2479 14.96993972676974
UNISAT-6                
1 40012U 14033C   26164.23367234  .00003106  00000+0  33591-3 0  9990
2 40012  97.7869 317.0154 0046382  81.9957 278.6519 14.88226304645571
DUCHIFAT-1              
1 40021U 14033M   26164.11936294  .00104096  00000+0  11013-2 0  9999
2 40021  98.0477 222.7109 0003769 123.4886 236.6731 15.63811207655114
QB50P1                  
1 40025U 14033R   26164.26154085  .00008174  00000+0  40304-3 0  9995
2 40025  98.0959 175.1320 0007473 230.7875 129.2695 15.18203593652436
LILACSAT-2              
1 40908U 15049K   26164.27322069  .00019691  00000+0  33643-3 0  9997
2 40908  97.4653 200.9661 0005319 263.8719  96.1927 15.51324862595140
FOX-1A (AO-85)          
1 40967U 15058D   26163.72438215  .00002656  00000+0  24338-3 0  9996
2 40967  64.7760 292.8522 0130225  58.2895 303.0834 14.90949991112907
CAS-2T & KS-1Q          
1 41847U 16066G   26164.22346131  .00001632  00000+0  23577-3 0  9992
2 41847  98.3820 240.0050 0342676 141.4655 221.1545 14.44682028504223
RADFXSAT (FOX-1B)       
1 43017U 17073E   26164.17294973  .00009278  00000+0  40511-3 0  9993
2 43017  97.4713  31.4706 0150188 343.1740  16.4538 15.12658039464780
DIWATA-2B               
1 43678U 18084H   26164.30196316  .00002266  00000+0  18516-3 0  9996
2 43678  98.1180   0.3416 0012282 182.6925 177.4233 15.00433960415636
ES'HAIL 2               
1 43700U 18090A   26164.26802512  .00000156  00000+0  00000+0 0  9997
2 43700   0.0014 352.0519 0001497 130.5545 261.2737  1.00268629 27630
FOX-1CLIFF (AO-95)      
1 43770U 18099N   26164.14505075  .00010687  00000+0  41004-3 0  9997
2 43770  97.4395 224.4060 0008409  12.6677 347.4772 15.26630573412603
ITASAT                  
1 43786U 18099AE  26164.13515017  .00007046  00000+0  33910-3 0  9992
2 43786  97.4035 215.7274 0012539  14.5833 345.5761 15.19009919412293
JY1SAT (JO-97)          
1 43803U 18099AX  26164.11559628  .00018314  00000+0  56663-3 0  9996
2 43803  97.4136 226.9355 0004158 282.3495  77.7281 15.33530992413003
UWE-4                   
1 43880U 18111E   26163.74910111  .00036318  00000+0  74700-3 0  9998
2 43880  97.5854  91.9364 0006327   1.7495 358.3775 15.45861506410092
TIANYAN 01              
1 44881U 19093C   26164.27523939  .00000555  00000+0  68611-4 0  9996
2 44881  97.7533 236.6024 0014991  98.6754 261.6161 14.86511535350838
RS-44 & BREEZE-KM R/B   
1 44909U 19096E   26164.25248182  .00000030  00000+0  69239-4 0  9997
2 44909  82.5217 342.3200 0218013 153.3389 207.9122 12.79748773301848
SALSAT                  
1 46495U 20068K   26164.15546278  .00007973  00000+0  27935-3 0  9995
2 46495  97.8846 166.9746 0008357 325.1548  34.9143 15.29744309314749
XW-3 (CAS-9)            
1 50466U 21131B   26164.30597126  .00000366  00000+0  12679-3 0  9993
2 50466  98.4978 256.7164 0005298 105.1268 255.0508 14.41353637234557
GREENCUBE (IO-117)      
1 53109U 22080E   26152.46502029 -.00000003  00000+0  00000+0 0  9996
2 53109  70.1435 303.7143 0008869 293.3663  66.6064  6.42583280 91055
UMKA 1 (RS40S)          
1 57172U 23091G   26164.27769354  .00005936  00000+0  27193-3 0  9996
2 57172  97.5057 222.9897 0014096 129.8079 230.4399 15.20774579163414
CUBESX-HSE 3 (RS42S)    
1 57178U 23091N   26164.25275021  .00014221  00000+0  47424-3 0  9999
2 57178  97.5101 229.7900 0012118 106.7532 253.5039 15.31121766163829
MONITOR-3 (RS58S)       
1 57180U 23091Q   26164.26858310  .00011018  00000+0  40783-3 0  9993
2 57180  97.5091 227.6856 0013106 112.8829 247.3795 15.27767226163699
MONITOR-4 (RS57S)       
1 57182U 23091S   26164.24785856  .00010512  00000+0  38821-3 0  9995
2 57182  97.5087 227.6358 0013120 113.2961 246.9661 15.27854685163694
MONITOR-2 (RS39S)       
1 57184U 23091U   26164.22817231  .00005294  00000+0  25670-3 0  9997
2 57184  97.5080 222.5363 0012623 123.1759 237.0688 15.18876098163356
SVYATOBOR 1 (RS60S)     
1 57187U 23091X   26164.25758269  .00009790  00000+0  37658-3 0  9992
2 57187  97.5097 228.0526 0010917 106.1950 254.0491 15.26551879163714
VIZARD-METEO (RS38S)    
1 57189U 23091Z   26164.23876647  .00016761  00000+0  48095-3 0  9996
2 57189  97.5100 233.6445 0008500  89.4621 270.7597 15.35907033164086
POLYTECH-UNIVERSE 3 (R*)
1 57191U 23091AB  26164.25589784  .00005288  00000+0  25455-3 0  9991
2 57191  97.5054 222.0685 0016652 139.3417 220.9064 15.19076898163353
UTMN 2 (RS27S)          
1 57203U 23091AP  26164.20717184  .00013847  00000+0  45041-3 0  9990
2 57203  97.5096 231.3730 0009442  95.5731 264.6588 15.31959586163936
